H1 CPF 01  gfz 2022 04 06 12  5962 tandemx   
H2 1003001  6202 36605    2022 04 06 12 59 42 2022 04 11 00 00 42   120 1 1  0 0 0
H9
10 0 59678  69102.000000  0    6107054.670  -2242929.123   2257034.618
10 0 59678  69222.000000  0    5711821.831  -2288152.359   3088865.781
10 0 59678  69342.000000  0    5216339.540  -2285569.779   3866300.895
10 0 59678  69462.000000  0    4630137.797  -2233562.608   4575661.141
10 0 59678  69582.000000  0    3964357.485  -2131560.649   5204478.180
10 0 59678  69702.000000  0    3231530.440  -1980076.417   5741714.512
10 0 59678  69822.000000  0    2445333.994  -1780715.565   6177953.935
10 0 59678  69942.000000  0    1620329.512  -1536164.048   6505560.851
10 0 59678  70062.000000  0     771688.272  -1250153.054   6718808.225
10 0 59678  70182.000000  0     -85090.248   -927401.374   6813972.014
10 0 59678  70302.000000  0    -934461.672   -573536.567   6789391.093
10 0 59678  70422.000000  0   -1761117.436   -194996.934   6645493.961
10 0 59678  70542.000000  0   -2550259.452    201085.282   6384791.780
10 0 59678  70662.000000  0   -3287864.614    607017.448   6011838.010
10 0 59678  70782.000000  0   -3960935.876   1014694.473   5533154.510
10 0 59678  70902.000000  0   -4557736.131   1415758.818   4957123.756
10 0 59678  71022.000000  0   -5067999.541   1801770.561   4293847.622
10 0 59678  71142.000000  0   -5483116.218   2164383.862   3554974.131
10 0 59678  71262.000000  0   -5796285.333   2495525.626   2753494.934
10 0 59678  71382.000000  0   -6002634.487   2787572.805   1903517.054
10 0 59678  71502.000000  0   -6099302.542   3033524.335   1020011.495
10 0 59678  71622.000000  0   -6085481.731   3227163.006    118542.268
10 0 59678  71742.000000  0   -5962417.365   3363202.552   -785015.945
10 0 59678  71862.000000  0   -5733366.718   3437416.206  -1674766.101
10 0 59678  71982.000000  0   -5403517.708   3446744.241  -2535077.896
10 0 59678  72102.000000  0   -4979867.277   3389376.567  -3350869.595
10 0 59678  72222.000000  0   -4471065.827   3264809.201  -4107876.021
10 0 59678  72342.000000  0   -3887231.389   3073873.390  -4792896.943
10 0 59678  72462.000000  0   -3239739.928   2818737.638  -5394022.371
10 0 59678  72582.000000  0   -2540997.447   2502883.273  -5900830.391
10 0 59678  72702.000000  0   -1804198.752   2131055.228  -6304558.501
10 0 59678  72822.000000  0   -1043075.703   1709187.494  -6598243.471
10 0 59678  72942.000000  0    -271643.523   1244306.805  -6776829.482
10 0 59678  73062.000000  0     496052.470    744415.631  -6837245.491
10 0 59678  73182.000000  0    1246185.603    218357.194  -6778453.382
10 0 59678  73302.000000  0    1965392.320   -324337.900  -6601464.393
10 0 59678  73422.000000  0    2641004.255   -873619.886  -6309322.576
10 0 59678  73542.000000  0    3261267.787  -1419100.996  -5907058.609
10 0 59678  73662.000000  0    3815546.781  -1950246.477  -5401611.911
10 0 59678  73782.000000  0    4294507.628  -2456574.937  -4801723.129
10 0 59678  73902.000000  0    4690281.385  -2927864.319  -4117793.557
10 0 59678  74022.000000  0    4996599.343  -3354357.925  -3361714.976
10 0 59678  74142.000000  0    5208900.977  -3726967.085  -2546671.402
10 0 59678  74262.000000  0    5324410.545  -4037466.261  -1686913.480
10 0 59678  74382.000000  0    5342178.792  -4278675.127   -797510.153
10 0 59678  74502.000000  0    5263088.997  -4444623.659    105918.383
10 0 59678  74622.000000  0    5089825.970  -4530695.822   1007481.318
10 0 59678  74742.000000  0    4826807.371  -4533746.082   1891305.647
10 0 59678  74862.000000  0    4480079.944  -4452186.119   2741824.639
10 0 59678  74982.000000  0    4057183.895  -4286039.528   3544059.798
10 0 59678  75102.000000  0    3566988.458  -4036964.438   4283891.075
10 0 59678  75222.000000  0    3019501.949  -3708242.305   4948309.664
10 0 59678  75342.000000  0    2425662.837  -3304733.043   5525647.092
10 0 59678  75462.000000  0    1797117.007  -2832799.531   6005778.660
10 0 59678  75582.000000  0    1145984.785  -2300201.818   6380296.359
10 0 59678  75702.000000  0     484624.699  -1715965.393   6642649.858
10 0 59678  75822.000000  0    -174602.403  -1090225.354   6788255.012
10 0 59678  75942.000000  0    -819563.836   -434048.512   6814569.072
10 0 59678  76062.000000  0   -1438577.342    240762.836   6721131.923
10 0 59678  76182.000000  0   -2020622.015    921882.785   6509573.642
10 0 59678  76302.000000  0   -2555534.285   1596686.173   6183587.875
10 0 59678  76422.000000  0   -3034186.221   2252481.797   5748871.434
10 0 59678  76542.000000  0   -3448643.687   2876751.624   5213031.242
10 0 59678  76662.000000  0   -3792302.066   3457391.897   4585457.195
10 0 59678  76782.000000  0   -4059996.252   3982950.981   3877162.896
10 0 59678  76902.000000  0   -4248082.585   4442860.294   3100596.155
10 0 59678  77022.000000  0   -4354490.562   4827652.548   2269420.560
10 0 59678  77142.000000  0   -4378741.701   5129161.081   1398272.119
10 0 59678  77262.000000  0   -4321936.666   5340695.352    502496.689
10 0 59678  77382.000000  0   -4186710.978   5457189.199   -402127.009
10 0 59678  77502.000000  0   -3977158.604   5475318.371  -1299675.055
10 0 59678  77622.000000  0   -3698724.882   5393580.211  -2174369.453
10 0 59678  77742.000000  0   -3358072.263   5212336.620  -3010862.496
10 0 59678  77862.000000  0   -2962923.574   4933819.486  -3794511.424
10 0 59678  77982.000000  0   -2521887.097   4562097.317  -4511635.360
10 0 59678  78102.000000  0   -2044268.142   4103007.012  -5149750.119
10 0 59678  78222.000000  0   -1539872.746   3564054.227  -5697777.729
10 0 59678  78342.000000  0   -1018807.084   2954283.188  -6146230.538
10 0 59678  78462.000000  0    -491276.076   2284117.884  -6487365.036
10 0 59678  78582.000000  0      32613.729   1565180.312  -6715303.316
10 0 59678  78702.000000  0     543042.907    810089.044  -6826124.252
10 0 59678  78822.000000  0    1030658.758     32241.028  -6817924.330
10 0 59678  78942.000000  0    1486742.886   -754421.836  -6690846.403
10 0 59678  79062.000000  0    1903362.680  -1535656.469  -6447075.971
10 0 59678  79182.000000  0    2273506.478  -2297169.406  -6090807.953
10 0 59678  79302.000000  0    2591200.689  -3024872.228  -5628183.122
10 0 59678  79422.000000  0    2851607.693  -3705140.838  -5067194.411
10 0 59678  79542.000000  0    3051101.818  -4325072.082  -4417558.130
10 0 59678  79662.000000  0    3187320.594  -4872729.808  -3690555.569
10 0 59678  79782.000000  0    3259192.698  -5337380.220  -2898848.179
10 0 59678  79902.000000  0    3266940.554  -5709711.684  -2056263.514
10 0 59678  80022.000000  0    3212056.675  -5982029.852  -1177555.819
10 0 59678  80142.000000  0    3097254.004  -6148425.336   -278146.107
10 0 59678  80262.000000  0    2926389.837  -6204907.161    626154.618
10 0 59678  80382.000000  0    2704365.818  -6149498.532   1519429.984
10 0 59678  80502.000000  0    2437007.165  -5982293.755   2385948.288
10 0 59678  80622.000000  0    2130922.092  -5705470.505   3210449.066
10 0 59678  80742.000000  0    1793346.809  -5323260.398   3978417.945
10 0 59678  80862.000000  0    1431979.857  -4841879.979   4676346.533
10 0 59678  80982.000000  0    1054810.852  -4269422.445   5291971.857
10 0 59678  81102.000000  0     669946.288  -3615713.385   5814492.625
10 0 59678  81222.000000  0     285436.474  -2892131.673   6234754.884
10 0 59678  81342.000000  0     -90891.011  -2111404.068   6545405.382
10 0 59678  81462.000000  0    -451588.425  -1287377.333   6741013.562
10 0 59678  81582.000000  0    -789733.560   -434770.916   6818161.978
10 0 59678  81702.000000  0   -1099061.401    431087.394   6775502.973
10 0 59678  81822.000000  0   -1374079.738   1294537.093   6613780.480
10 0 59678  81942.000000  0   -1610166.367   2139867.473   6335817.623
10 0 59678  82062.000000  0   -1803647.275   2951603.147   5946470.684
10 0 59678  82182.000000  0   -1951854.172   3714788.405   5452548.864
10 0 59678  82302.000000  0   -2053160.316   4415265.498   4862701.792
10 0 59678  82422.000000  0   -2106994.962   5039943.512   4187274.285
10 0 59678  82542.000000  0   -2113834.824   5577050.980   3438129.104
10 0 59678  82662.000000  0   -2075173.358   6016366.607   2628440.008
10 0 59678  82782.000000  0   -1993468.041   6349422.270   1772459.044
10 0 59678  82902.000000  0   -1872066.320   6569674.406    885261.740
10 0 59678  83022.000000  0   -1715111.853   6672638.391    -17524.568
10 0 59678  83142.000000  0   -1527434.243   6655982.835   -920003.831
10 0 59678  83262.000000  0   -1314424.186   6519581.585  -1806301.963
10 0 59678  83382.000000  0   -1081896.553   6265516.466  -2660856.681
10 0 59678  83502.000000  0    -835947.342   5898035.280  -3468695.178
10 0 59678  83622.000000  0    -582807.449   5423470.206  -4215697.405
10 0 59678  83742.000000  0    -328696.937   4850116.761  -4888841.760
10 0 59678  83862.000000  0     -79682.800   4188076.988  -5476426.868
10 0 59678  83982.000000  0     158456.788   3449071.284  -5968267.641
10 0 59678  84102.000000  0     380358.350   2646221.988  -6355861.819
10 0 59678  84222.000000  0     581186.048   1793815.360  -6632524.810
10 0 59678  84342.000000  0     756730.957    907047.462  -6793494.203
10 0 59678  84462.000000  0     903494.455      1755.950  -6836003.196
10 0 59678  84582.000000  0    1018754.730   -905857.751  -6759322.842
10 0 59678  84702.000000  0    1100615.342  -1799511.578  -6564771.461
10 0 59678  84822.000000  0    1148035.742  -2663126.126  -6255694.059
10 0 59678  84942.000000  0    1160844.058  -3481107.647  -5837413.330
10 0 59678  85062.000000  0    1139729.919  -4238628.541  -5317147.998
10 0 59678  85182.000000  0    1086218.996  -4921896.537  -4703898.026
10 0 59678  85302.000000  0    1002629.375  -5518409.795  -4008300.962
10 0 59678  85422.000000  0     892009.284  -6017194.309  -3242457.442
10 0 59678  85542.000000  0     758057.983  -6409016.361  -2419728.010
99
